COSMOS 2361 [-]         
1 25590U 98076A   16108.92503895  .00000051  00000-0  38798-4 0  9993
2 25590  82.9338  70.2693 0031406 349.1377  63.2277 13.72912096867324
COSMOS 2378 [-]         
1 26818U 01023A   16108.58727038  .00000009  00000-0 -65012-5 0  9996
2 26818  82.9253  92.7084 0032183 305.4754  54.3412 13.73898204745090
COSMOS 2389 [-]         
1 27436U 02026A   16108.87597409  .00000028  00000-0  13197-4 0  9992
2 27436  82.9539  35.8456 0046375 175.7314 245.5554 13.74897930697029
COSMOS 2398 [-]         
1 27818U 03023A   16108.54875233  .00000039  00000-0  26384-4 0  9996
2 27818  82.9512 350.4085 0031076 182.3070 177.7945 13.72126661644568
COSMOS 2407 [+]         
1 28380U 04028A   16108.83507340  .00000026  00000-0  11262-4 0  9995
2 28380  82.9582 303.1711 0038703 190.9027 169.1293 13.76023420589508
COSMOS 2414 [+]         
1 28521U 05002A   16109.34165163  .00000030  00000-0  11422-4 0  9998
2 28521  82.9504 329.9620 0041503 109.1084 251.4581 13.87567158569361
COSMOS 2429 [-]         
1 32052U 07038A   16109.50896101  .00000021  00000-0  58574-5 0  9994
2 32052  82.9813  60.6106 0038925 156.2351 204.0614 13.74870238431697
COSMOS 2454 [-]         
1 35635U 09039A   16109.57680245  .00000036  00000-0  16294-4 0  9992
2 35635  82.9554 320.3279 0020683  76.5348 283.8114 13.89593146342088
COSMOS 2463 [+]         
1 36519U 10017A   16109.54186184  .00000130  00000-0  12713-3 0  9998
2 36519  82.9576  96.0153 0036197 349.1132  10.9234 13.71397700299261
